[{"OBJECT_NAME":"KUIPER-00087","OBJECT_ID":"2025-151T","EPOCH":"2026-03-09T21:11:23.913888","MEAN_MOTION":14.79928134,"ECCENTRICITY":4.769e-5,"INCLINATION":51.8991,"RA_OF_ASC_NODE":279.7259,"ARG_OF_PERICENTER":48.0062,"MEAN_ANOMALY":312.094,"EPHEMERIS_TYPE":0,"CLASSIFICATION_TYPE":"U","NORAD_CAT_ID":64833,"ELEMENT_SET_NO":999,"REV_AT_EPOCH":3560,"BSTAR":-4.0476451e-5,"MEAN_MOTION_DOT":-5.3e-6,"MEAN_MOTION_DDOT":0},{"OBJECT_NAME":"ORBCOMM FM39","OBJECT_ID":"2008-031D","EPOCH":"2026-03-09T14:23:13.269696","MEAN_MOTION":14.80823083,"ECCENTRICITY":0.0005758,"INCLINATION":48.4385,"RA_OF_ASC_NODE":172.5957,"ARG_OF_PERICENTER":54.7239,"MEAN_ANOMALY":305.4214,"EPHEMERIS_TYPE":0,"CLASSIFICATION_TYPE":"U","NORAD_CAT_ID":33063,"ELEMENT_SET_NO":999,"REV_AT_EPOCH":95311,"BSTAR":0.00030893,"MEAN_MOTION_DOT":2.195e-5,"MEAN_MOTION_DDOT":0}]
